[{"OBJECT_NAME":"STARLINK-30127","OBJECT_ID":"2023-067M","EPOCH":"2026-03-08T23:48:15.995520","MEAN_MOTION":15.0253729,"ECCENTRICITY":0.00011186,"INCLINATION":43.0041,"RA_OF_ASC_NODE":278.3765,"ARG_OF_PERICENTER":255.7106,"MEAN_ANOMALY":104.3612,"EPHEMERIS_TYPE":0,"CLASSIFICATION_TYPE":"U","NORAD_CAT_ID":56699,"ELEMENT_SET_NO":999,"REV_AT_EPOCH":15555,"BSTAR":-2.4049258e-5,"MEAN_MOTION_DOT":-5.28e-6,"MEAN_MOTION_DDOT":0},{"OBJECT_NAME":"CZ-2C DEB","OBJECT_ID":"2011-030F","EPOCH":"2026-03-09T18:15:45.395712","MEAN_MOTION":15.09717889,"ECCENTRICITY":0.00353547,"INCLINATION":98.459,"RA_OF_ASC_NODE":350.9929,"ARG_OF_PERICENTER":109.3287,"MEAN_ANOMALY":305.6279,"EPHEMERIS_TYPE":0,"CLASSIFICATION_TYPE":"U","NORAD_CAT_ID":37735,"ELEMENT_SET_NO":999,"REV_AT_EPOCH":78307,"BSTAR":0.0021378399,"MEAN_MOTION_DOT":0.00035046,"MEAN_MOTION_DDOT":0}]
